{"fetched_at":"2026-03-29T16:36:15Z","count":15609,"tles":[{"name":"STARLINK-32238","line1":"1 61661U 24193A   26087.17176780 -.00000258  00000+0  34302-5 0  9991","line2":"2 61661  53.1633   5.3498 0001804 123.7971 236.3202 15.30199791 79352","category":"Starlink"}]}