{
  "norad_id": 61661,
  "name": "STARLINK-32238",
  "history": [
    {
      "epoch": "2026-03-28T04:07:20.737920",
      "apogee_km": 476.4521068151489,
      "perigee_km": 473.97928009629595,
      "latitude_deg": 12.842748441370967,
      "longitude_deg": 2.589708800194785,
      "semi_major_axis_km": 6853.352693455722,
      "eccentricity": 0.00018041,
      "inclination_deg": 53.1633,
      "raan_deg": 5.3498,
      "arg_perigee_deg": 123.7971,
      "mean_anomaly_deg": 236.3202,
      "mean_motion_rev_day": 15.30199791
    }
  ]
}